NORAD_CAT_ID,OBJECT_NAME,OBJECT_TYPE,EPOCH,MEAN_MOTION,ECCENTRICITY,INCLINATION,RA_OF_ASC_NODE,ARG_OF_PERICENTER,MEAN_ANOMALY,BSTAR,MEAN_MOTION_DOT,MEAN_MOTION_DDOT,TLE_LINE0,TLE_LINE1,TLE_LINE2,SEMIMAJOR_AXIS,PERIOD,APOGEE,PERIGEE,DECAYED
50842.0,STARLINK-3302,PAYLOAD,2023-10-21 22:39:13,15.08840928,0.0001805,53.2152,123.5597,79.996,280.1236,0.00043481,6.639e-05,0.0,0 STARLINK-3302,1 50842U 22001AR  23294.94390435  .00006639  00000-0  43481-3 0  9998,2 50842  53.2152 123.5597 0001805  79.9960 280.1236 15.08840928 98953,6917.878,95.437,540.991,538.494,0.0
50842.0,STARLINK-3302,PAYLOAD,2023-10-22 12:57:41,15.08832868,0.0001496,53.2194,120.8764,109.077,251.0385,7.2759e-05,8.7e-06,0.0,0 STARLINK-3302,1 50842U 22001AR  23295.54006742  .00000870  00000-0  72759-4 0  9992,2 50842  53.2194 120.8764 0001496 109.0770 251.0385 15.08832868100337,6917.902,95.438,540.802,538.732,0.0
50842.0,STARLINK-3302,PAYLOAD,2023-10-22 19:19:14,15.08830048,0.0001562,53.2157,119.6945,81.1902,278.9267,-1.6189e-05,-5.46e-06,0.0,0 STARLINK-3302,1 50842U 22001AR  23295.80503243 -.00000546  00000-0 -16189-4 0  9996,2 50842  53.2157 119.6945 0001562  81.1902 278.9267 15.08830048 99088,6917.911,95.438,540.856,538.695,0.0
50842.0,STARLINK-3302,PAYLOAD,2023-10-23 19:10:01,15.08843257,0.00015,53.2154,115.2345,87.3051,272.8113,9.9468e-05,1.296e-05,0.0,0 STARLINK-3302,1 50842U 22001AR  23296.79862937  .00001296  00000-0  99468-4 0  9995,2 50842  53.2154 115.2345 0001500  87.3051 272.8113 15.08843257100527,6917.87,95.437,540.773,538.698,0.0
50842.0,STARLINK-3302,PAYLOAD,2023-10-23 22:20:47,15.08842733,0.0001508,53.2155,114.6398,88.9651,271.1514,0.00018205,2.611e-05,0.0,0 STARLINK-3302,1 50842U 22001AR  23296.93111020  .00002611  00000-0  18205-3 0  9992,2 50842  53.2155 114.6398 0001508  88.9651 271.1514 15.08842733 99252,6917.872,95.437,540.78,538.694,0.0
50842.0,STARLINK-3302,PAYLOAD,2023-10-24 12:39:16,15.08838432,0.0001469,53.2154,111.9632,91.8117,268.3043,0.00020022,2.9e-05,0.0,0 STARLINK-3302,1 50842U 22001AR  23297.52727332  .00002900  00000-0  20022-3 0  9998,2 50842  53.2154 111.9632 0001469  91.8117 268.3043 15.08838432100639,6917.885,95.438,540.766,538.734,0.0
50842.0,STARLINK-3302,PAYLOAD,2023-10-24 14:14:39,15.08840164,0.0001472,53.2154,111.6659,91.7573,268.3588,0.00022299,3.263e-05,0.0,0 STARLINK-3302,1 50842U 22001AR  23297.59351281  .00003263  00000-0  22299-3 0  9992,2 50842  53.2154 111.6659 0001472  91.7573 268.3588 15.08840164 99359,6917.88,95.438,540.763,538.727,0.0
50842.0,STARLINK-3302,PAYLOAD,2023-10-25 14:05:26,15.08846456,0.0001404,53.215,107.2052,90.2988,269.8165,0.00017532,2.504e-05,0.0,0 STARLINK-3302,1 50842U 22001AR  23298.58710874  .00002504  00000-0  17532-3 0  9990,2 50842  53.2150 107.2052 0001404  90.2988 269.8165 15.08846456100790,6917.861,95.437,540.697,538.754,0.0
50842.0,STARLINK-3302,PAYLOAD,2023-10-26 12:20:50,15.08838065,0.0001436,53.2156,103.0417,90.6254,269.4903,3.6921e-05,3e-06,0.0,0 STARLINK-3302,1 50842U 22001AR  23299.51447220  .00000300  00000-0  36921-4 0  9992,2 50842  53.2156 103.0417 0001436  90.6254 269.4903 15.08838065100939,6917.886,95.438,540.745,538.758,0.0
50842.0,STARLINK-3302,PAYLOAD,2023-10-26 13:56:13,15.08838463,0.0001437,53.2157,102.7443,90.652,269.4637,2.7963e-05,1.57e-06,0.0,0 STARLINK-3302,1 50842U 22001AR  23299.58071186  .00000157  00000-0  27963-4 0  9999,2 50842  53.2157 102.7443 0001437  90.6520 269.4637 15.08838463 99654,6917.885,95.438,540.744,538.756,0.0
50842.0,STARLINK-3302,PAYLOAD,2023-10-26 20:17:45,15.0884596,0.0001393,53.2169,101.555,89.7256,270.3895,9.0247e-05,1.149e-05,0.0,0 STARLINK-3302,1 50842U 22001AR  23299.84566947  .00001149  00000-0  90247-4 0  9999,2 50842  53.2169 101.5550 0001393  89.7256 270.3895 15.08845960 99690,6917.862,95.437,540.691,538.764,0.0
50842.0,STARLINK-3302,PAYLOAD,2023-10-27 04:14:41,15.08846771,0.0001397,53.2169,100.0683,89.1784,270.9368,7.3076e-05,8.75e-06,0.0,0 STARLINK-3302,1 50842U 22001AR  23300.17686885  .00000875  00000-0  73076-4 0  9998,2 50842  53.2169 100.0683 0001397  89.1784 270.9368 15.08846771 99743,6917.86,95.437,540.691,538.758,0.0
50842.0,STARLINK-3302,PAYLOAD,2023-10-27 20:08:32,15.08854539,0.0001395,53.2159,97.0946,85.2034,274.9117,0.00022416,3.283e-05,0.0,0 STARLINK-3302,1 50842U 22001AR  23300.83926195  .00003283  00000-0  22416-3 0  9999,2 50842  53.2159  97.0946 0001395  85.2034 274.9117 15.08854539101136,6917.836,95.437,540.666,538.736,0.0
50842.0,STARLINK-3302,PAYLOAD,2023-10-28 04:05:28,15.08846417,0.0001217,53.2161,95.6082,89.7256,270.3875,0.00010663,1.41e-05,0.0,0 STARLINK-3302,1 50842U 22001AR  23301.17046526  .00001410  00000-0  10663-3 0  9999,2 50842  53.2161  95.6082 0001217  89.7256 270.3875 15.08846417101184,6917.861,95.437,540.568,538.884,0.0
50842.0,STARLINK-3302,PAYLOAD,2023-10-28 13:37:47,15.08830744,0.0001541,53.216,93.8239,82.312,277.8047,-4.1558e-05,-9.49e-06,0.0,0 STARLINK-3302,1 50842U 22001AR  23301.56791553 -.00000949  00000-0 -41558-4 0  9995,2 50842  53.2160  93.8239 0001541  82.3120 277.8047 15.08830744 99956,6917.909,95.438,540.84,538.708,0.0
50842.0,STARLINK-3302,PAYLOAD,2023-10-28 16:48:33,15.08836814,0.0001443,53.2163,93.2285,101.3777,258.7377,4.3174e-05,3.99e-06,0.0,0 STARLINK-3302,1 50842U 22001AR  23301.70039234  .00000399  00000-0  43174-4 0  9995,2 50842  53.2163  93.2285 0001443 101.3777 258.7377 15.08836814101261,6917.89,95.438,540.753,538.757,0.0
50842.0,STARLINK-3302,PAYLOAD,2023-10-29 10:17:47,15.08849265,0.0001443,53.2153,89.9561,107.2529,252.8621,0.0001457,2.032e-05,0.0,0 STARLINK-3302,1 50842U 22001AR  23302.42902552  .00002032  00000-0  14570-3 0  9990,2 50842  53.2153  89.9561 0001443 107.2529 252.8621 15.08849265101372,6917.852,95.437,540.715,538.719,0.0
50842.0,STARLINK-3302,PAYLOAD,2023-10-29 13:28:33,15.08853965,0.000144,53.2151,89.3627,98.8827,261.2328,0.00022163,3.242e-05,0.0,0 STARLINK-3302,1 50842U 22001AR  23302.56150349  .00003242  00000-0  22163-3 0  9995,2 50842  53.2151  89.3627 0001440  98.8827 261.2328 15.08853965100100,6917.838,95.437,540.699,538.707,0.0
50842.0,STARLINK-3302,PAYLOAD,2023-10-29 16:39:20,15.08860554,0.0001401,53.2155,88.7683,89.1083,271.0069,0.00047615,7.302e-05,0.0,0 STARLINK-3302,1 50842U 22001AR  23302.69398287  .00007302  00000-0  47615-3 0  9994,2 50842  53.2155  88.7683 0001401  89.1083 271.0069 15.08860554100128,6917.818,95.436,540.652,538.713,0.0
50842.0,STARLINK-3302,PAYLOAD,2023-10-30 10:08:35,15.08845347,0.0001415,53.2158,85.4961,88.0606,272.0548,0.00026994,4.011e-05,0.0,0 STARLINK-3302,1 50842U 22001AR  23303.42262974  .00004011  00000-0  26994-3 0  9990,2 50842  53.2158  85.4961 0001415  88.0606 272.0548 15.08845347101529,6917.864,95.437,540.708,538.75,0.0
50842.0,STARLINK-3302,PAYLOAD,2023-10-30 18:05:30,15.08842188,0.0001413,53.2163,84.0098,80.8542,279.261,0.00015913,2.246e-05,0.0,0 STARLINK-3302,1 50842U 22001AR  23303.75383027  .00002246  00000-0  15913-3 0  9996,2 50842  53.2163  84.0098 0001413  80.8542 279.2610 15.08842188100289,6917.874,95.437,540.716,538.761,0.0
50842.0,STARLINK-3302,PAYLOAD,2023-10-31 13:10:09,15.08834495,0.0001513,53.2177,80.4416,90.2129,269.9036,-5.3309e-05,-1.136e-05,0.0,0 STARLINK-3302,1 50842U 22001AR  23304.54871540 -.00001136  00000-0 -53309-4 0  9997,2 50842  53.2177  80.4416 0001513  90.2129 269.9036 15.08834495101691,6917.897,95.438,540.809,538.716,0.0
50842.0,STARLINK-3302,PAYLOAD,2023-10-31 16:20:55,15.08838241,0.0001435,53.2172,79.8495,94.0682,266.0474,6.4326e-05,7.36e-06,0.0,0 STARLINK-3302,1 50842U 22001AR  23304.68119408  .00000736  00000-0  64326-4 0  9994,2 50842  53.2172  79.8495 0001435  94.0682 266.0474 15.08838241100421,6917.886,95.438,540.743,538.758,0.0
50842.0,STARLINK-3302,PAYLOAD,2023-11-01 14:36:19,15.08838506,0.0001405,53.2174,75.6844,85.7131,274.4021,0.00019716,2.851e-05,0.0,0 STARLINK-3302,1 50842U 22001AR  23305.60855927  .00002851  00000-0  19716-3 0  9992,2 50842  53.2174  75.6844 0001405  85.7131 274.4021 15.08838506100568,6917.885,95.438,540.722,538.778,0.0
50842.0,STARLINK-3302,PAYLOAD,2023-11-01 16:11:42,15.08841275,0.0001453,53.2169,75.3874,86.9503,273.1656,0.00025375,3.753e-05,0.0,0 STARLINK-3302,1 50842U 22001AR  23305.67479860  .00003753  00000-0  25375-3 0  9997,2 50842  53.2169  75.3874 0001453  86.9503 273.1656 15.08841275101862,6917.876,95.437,540.747,538.736,0.0
50842.0,STARLINK-3302,PAYLOAD,2023-11-02 12:51:43,15.0884056,0.0001338,53.2171,71.5222,86.7695,273.345,0.00017633,2.52e-05,0.0,0 STARLINK-3302,1 50842U 22001AR  23306.53592041  .00002520  00000-0  17633-3 0  9999,2 50842  53.2171  71.5222 0001338  86.7695 273.3450 15.08840560101996,6917.879,95.438,540.669,538.818,0.0
50842.0,STARLINK-3302,PAYLOAD,2023-11-02 14:27:06,15.08842523,0.0001381,53.2168,71.2247,85.9871,274.1279,0.00019277,2.782e-05,0.0,0 STARLINK-3302,1 50842U 22001AR  23306.60215975  .00002782  00000-0  19277-3 0  9991,2 50842  53.2168  71.2247 0001381  85.9871 274.1279 15.08842523100719,6917.873,95.437,540.693,538.782,0.0
50842.0,STARLINK-3302,PAYLOAD,2023-11-02 16:02:29,15.08845934,0.000141,53.2172,70.9272,82.3615,277.7538,0.00025196,3.725e-05,0.0,0 STARLINK-3302,1 50842U 22001AR  23306.66839898  .00003725  00000-0  25196-3 0  9998,2 50842  53.2172  70.9272 0001410  82.3615 277.7538 15.08845934100725,6917.862,95.437,540.703,538.752,0.0
50842.0,STARLINK-3302,PAYLOAD,2023-11-03 14:17:53,15.08843086,0.0001293,53.2167,66.7643,85.9372,274.1767,0.0001029,1.35e-05,0.0,0 STARLINK-3302,1 50842U 22001AR  23307.59575888  .00001350  00000-0  10290-3 0  9998,2 50842  53.2167  66.7643 0001293  85.9372 274.1767 15.08843086100868,6917.871,95.437,540.63,538.841,0.0
50842.0,STARLINK-3302,PAYLOAD,2023-11-03 17:28:39,15.08852567,0.0001436,53.2173,66.1682,87.3091,272.8066,0.00030192,4.522e-05,0.0,0 STARLINK-3302,1 50842U 22001AR  23307.72823545  .00004522  00000-0  30192-3 0  9996,2 50842  53.2173  66.1682 0001436  87.3091 272.8066 15.08852567102172,6917.842,95.437,540.7,538.714,0.0
